NOAA 1 [-]              
1 04793U 70106A   18126.84868098 -.00000051  00000-0 -39737-4 0  9997
2 04793 101.7540 194.7882 0031543 354.7220 116.5599 12.53984639169249
NOAA 2 (ITOS-D) [-]     
1 06235U 72082A   18126.97415039 -.00000011  00000-0  21241-3 0  9997
2 06235 101.7348  92.4032 0004476  80.9653 321.9634 12.53103409 83999
NOAA 3 [-]              
1 06920U 73086A   18126.91137709 -.00000078  00000-0 -24891-3 0  9990
2 06920 101.9919  96.0514 0006315 189.4911 192.3005 12.40348912 14506
NOAA 4 [-]              
1 07529U 74089A   18126.89217257 -.00000024  00000-0  13172-3 0  9994
2 07529 101.6927  94.9301 0009338 112.0818 302.6622 12.53120365988342
NOAA 5 [-]              
1 09057U 76077A   18126.94329185 -.00000056  00000-0 -98040-4 0  9995
2 09057 101.8750 103.9642 0010276  46.4747  17.3194 12.37760328887836
TIROS N [P]             
1 11060U 78096A   18127.17023127  .00000002  00000-0  22824-4 0  9994
2 11060  98.8462 182.0369 0011554 131.8823 228.3340 14.18194654258907
NOAA 6 [P]              
1 11416U 79057A   18126.92525901  .00000030  00000-0  26882-4 0  9995
2 11416  98.6093 117.5105 0010740  18.5606 341.5968 14.33476854 26243
NOAA 7 [-]              
1 12553U 81059A   18126.93563503 -.00000016  00000-0  15094-4 0  9992
2 12553  99.0837 120.0652 0012404  61.2819 350.3014 14.17240095904965
NOAA 8 [-]              
1 13923U 83022A   18126.93265298  .00000029  00000-0  28677-4 0  9990
2 13923  98.5438 114.7749 0014175 294.5354  65.4350 14.28636489827865
NOAA 9 [P]              
1 15427U 84123A   18126.88701225  .00000025  00000-0  34913-4 0  9999
2 15427  98.8432  72.7229 0015804 114.7764 313.2413 14.16035092723956
NOAA 10 [-]             
1 16969U 86073A   18126.95143024  .00000003  00000-0  18265-4 0  9990
2 16969  98.4648 130.6273 0013076  48.4177   6.8799 14.28041122646383
NOAA 11 [-]             
1 19531U 88089A   18126.71745667 -.00000050  00000-0 -42307-5 0  9991
2 19531  98.5029 176.1139 0011084 182.9716 177.1394 14.15225048528267
NOAA 12 [-]             
1 21263U 91032A   18126.93686290 -.00000008  00000-0  14473-4 0  9992
2 21263  98.5395 148.1949 0014671  58.7035 301.5580 14.25866755402601
NOAA 13 [-]             
1 22739U 93050A   18127.14069860 -.00000039  00000-0  11977-5 0  9996
2 22739  98.5143 165.8561 0008882 334.5806  25.4929 14.12705569275175
NOAA 14 [-]             
1 23455U 94089A   18126.88506259 -.00000014  00000-0  14964-4 0  9994
2 23455  98.6473 197.2522 0008593 316.4074  43.6420 14.14114633204346
NOAA 15 [B]             
1 25338U 98030A   18126.92967466  .00000034  00000-0  33121-4 0  9999
2 25338  98.7717 143.3296 0010229 353.8255   6.2797 14.25849705 38888
NOAA 16 [-]             
1 26536U 00055A   18126.91679925 -.00000001  00000-0  23043-4 0  9996
2 26536  98.8175 200.6863 0011569 120.6164 239.6151 14.13203902205121
NOAA 17 [-]             
1 27453U 02032A   18126.88606378  .00000011  00000-0  22921-4 0  9994
2 27453  98.4829  84.6760 0011285 338.7266  21.3443 14.25012071824853
NOAA 18 [B]             
1 28654U 05018A   18126.94723609  .00000005  00000-0  28180-4 0  9995
2 28654  99.1490 161.5526 0013398 240.8739 119.1091 14.12374462667861
NOAA 19 [+]             
1 33591U 09005A   18126.90753522  .00000083  00000-0  70028-4 0  9998
2 33591  99.1390 104.1221 0015038  83.2147 277.0734 14.12275499476086
SUOMI NPP [+]           
1 37849U 11061A   18126.96239443  .00000020  00000-0  30082-4 0  9997
2 37849  98.7351  65.9960 0000767  55.9425   7.5194 14.19547211338039
NOAA 20 [+]             
1 43013U 17073A   18126.91444601  .00000004  00000-0  22547-4 0  9994
2 43013  98.7231  65.8260 0001250  72.0324 288.0988 14.19557740 24053
